<?xml version="1.0" ?>
<gpx xmlns="http://www.topografix.com/GPX/1/1">
 <trk>
  <name>Cambridge Half Final Route</name>
  <trkseg>
   <trkpt lat="42.36731" lon="-71.07771"/>
   <trkpt lat="42.36605178" lon="-71.07798229"/>
   <trkpt lat="42.36605178" lon="-71.07798229"/>
   <trkpt lat="42.36549655" lon="-71.07810783"/>
   <trkpt lat="42.36549655" lon="-71.07810783"/>
   <trkpt lat="42.36520523" lon="-71.0781722"/>
   <trkpt lat="42.36520523" lon="-71.0781722"/>
   <trkpt lat="42.36459483" lon="-71.07832241"/>
   <trkpt lat="42.36459483" lon="-71.07832241"/>
   <trkpt lat="42.36427774" lon="-71.07843774"/>
   <trkpt lat="42.36427774" lon="-71.07843774"/>
   <trkpt lat="42.36411127" lon="-71.0784887"/>
   <trkpt lat="42.36411127" lon="-71.0784887"/>
   <trkpt lat="42.36371055" lon="-71.07859384"/>
   <trkpt lat="42.36371055" lon="-71.07859384"/>
   <trkpt lat="42.36357182" lon="-71.07859921"/>
   <trkpt lat="42.36357182" lon="-71.07859921"/>
   <trkpt lat="42.36343903" lon="-71.07860189"/>
   <trkpt lat="42.36343903" lon="-71.07860189"/>
   <trkpt lat="42.36317266" lon="-71.0786609"/>
   <trkpt lat="42.36317266" lon="-71.0786609"/>
   <trkpt lat="42.3629388" lon="-71.07873332"/>
   <trkpt lat="42.3629388" lon="-71.07873332"/>
   <trkpt lat="42.3623111" lon="-71.0788581"/>
   <trkpt lat="42.3623111" lon="-71.0788581"/>
   <trkpt lat="42.36165529" lon="-71.07896385"/>
   <trkpt lat="42.36165529" lon="-71.07896385"/>
   <trkpt lat="42.36140615" lon="-71.07903084"/>
   <trkpt lat="42.36140615" lon="-71.07903084"/>
   <trkpt lat="42.36125156" lon="-71.0791274"/>
   <trkpt lat="42.36125156" lon="-71.0791274"/>
   <trkpt lat="42.36113265" lon="-71.07924542"/>
   <trkpt lat="42.36113265" lon="-71.07924542"/>
   <trkpt lat="42.3610037" lon="-71.07945826"/>
   <trkpt lat="42.3610037" lon="-71.07945826"/>
   <trkpt lat="42.36093434" lon="-71.07963797"/>
   <trkpt lat="42.36093434" lon="-71.07963797"/>
   <trkpt lat="42.36088082" lon="-71.07986059"/>
   <trkpt lat="42.36088082" lon="-71.07986059"/>
   <trkpt lat="42.36085846" lon="-71.08028552"/>
   <trkpt lat="42.36085846" lon="-71.08028552"/>
   <trkpt lat="42.36086044" lon="-71.08084342"/>
   <trkpt lat="42.36086044" lon="-71.08084342"/>
   <trkpt lat="42.36086743" lon="-71.08151241"/>
   <trkpt lat="42.36086743" lon="-71.08151241"/>
   <trkpt lat="42.36086743" lon="-71.08196838"/>
   <trkpt lat="42.36086743" lon="-71.08196838"/>
   <trkpt lat="42.36083215" lon="-71.0822877"/>
   <trkpt lat="42.36083215" lon="-71.0822877"/>
   <trkpt lat="42.36077864" lon="-71.08253983"/>
   <trkpt lat="42.36077864" lon="-71.08253983"/>
   <trkpt lat="42.36069341" lon="-71.08278927"/>
   <trkpt lat="42.36069341" lon="-71.08278927"/>
   <trkpt lat="42.36048036" lon="-71.08348261"/>
   <trkpt lat="42.36048036" lon="-71.08348261"/>
   <trkpt lat="42.36015136" lon="-71.08446162"/>
   <trkpt lat="42.36015136" lon="-71.08446162"/>
   <trkpt lat="42.35992752" lon="-71.08511576"/>
   <trkpt lat="42.35992752" lon="-71.08511576"/>
   <trkpt lat="42.35955644" lon="-71.08623545"/>
   <trkpt lat="42.35955644" lon="-71.08623545"/>
   <trkpt lat="42.35927611" lon="-71.08703427"/>
   <trkpt lat="42.35927611" lon="-71.08703427"/>
   <trkpt lat="42.35917305" lon="-71.08735613"/>
   <trkpt lat="42.35917305" lon="-71.08735613"/>
   <trkpt lat="42.35887214" lon="-71.08823183"/>
   <trkpt lat="42.35887214" lon="-71.08823183"/>
   <trkpt lat="42.35857742" lon="-71.08911152"/>
   <trkpt lat="42.35857742" lon="-71.08911152"/>
   <trkpt lat="42.35828528" lon="-71.08999019"/>
   <trkpt lat="42.35828528" lon="-71.08999019"/>
   <trkpt lat="42.35805835" lon="-71.09064193"/>
   <trkpt lat="42.35805835" lon="-71.09064193"/>
   <trkpt lat="42.35792952" lon="-71.0909021"/>
   <trkpt lat="42.35792952" lon="-71.0909021"/>
   <trkpt lat="42.35777691" lon="-71.09119983"/>
   <trkpt lat="42.35777691" lon="-71.09119983"/>
   <trkpt lat="42.35766964" lon="-71.09146294"/>
   <trkpt lat="42.35766964" lon="-71.09146294"/>
   <trkpt lat="42.35753684" lon="-71.09180894"/>
   <trkpt lat="42.35753684" lon="-71.09180894"/>
   <trkpt lat="42.35722378" lon="-71.09278245"/>
   <trkpt lat="42.35722378" lon="-71.09278245"/>
   <trkpt lat="42.35694921" lon="-71.09357307"/>
   <trkpt lat="42.35694921" lon="-71.09357307"/>
   <trkpt lat="42.3568283" lon="-71.09398613"/>
   <trkpt lat="42.3568283" lon="-71.09398613"/>
   <trkpt lat="42.35670612" lon="-71.09467606"/>
   <trkpt lat="42.35670612" lon="-71.09467606"/>
   <trkpt lat="42.35663476" lon="-71.09491478"/>
   <trkpt lat="42.35663476" lon="-71.09491478"/>
   <trkpt lat="42.35639087" lon="-71.09565316"/>
   <trkpt lat="42.35639087" lon="-71.09565316"/>
   <trkpt lat="42.35624617" lon="-71.09611718"/>
   <trkpt lat="42.35624617" lon="-71.09611718"/>
   <trkpt lat="42.35597075" lon="-71.09695928"/>
   <trkpt lat="42.35597075" lon="-71.09695928"/>
   <trkpt lat="42.35574974" lon="-71.09759899"/>
   <trkpt lat="42.35574974" lon="-71.09759899"/>
   <trkpt lat="42.3555337" lon="-71.0982615"/>
   <trkpt lat="42.3555337" lon="-71.0982615"/>
   <trkpt lat="42.3554227" lon="-71.09860214"/>
   <trkpt lat="42.3554227" lon="-71.09860214"/>
   <trkpt lat="42.35524233" lon="-71.09915736"/>
   <trkpt lat="42.35524233" lon="-71.09915736"/>
   <trkpt lat="42.35512737" lon="-71.09948995"/>
   <trkpt lat="42.35512737" lon="-71.09948995"/>
   <trkpt lat="42.35499983" lon="-71.09988674"/>
   <trkpt lat="42.35499983" lon="-71.09988674"/>
   <trkpt lat="42.35490469" lon="-71.100163"/>
   <trkpt lat="42.35490469" lon="-71.100163"/>
   <trkpt lat="42.35480954" lon="-71.10043659"/>
   <trkpt lat="42.35480954" lon="-71.10043659"/>
   <trkpt lat="42.35454527" lon="-71.10123709"/>
   <trkpt lat="42.35454527" lon="-71.10123709"/>
   <trkpt lat="42.35407946" lon="-71.1026148"/>
   <trkpt lat="42.35407946" lon="-71.1026148"/>
   <trkpt lat="42.35389233" lon="-71.10314199"/>
   <trkpt lat="42.35389233" lon="-71.10314199"/>
   <trkpt lat="42.3537734" lon="-71.10359796"/>
   <trkpt lat="42.3537734" lon="-71.10359796"/>
   <trkpt lat="42.35372385" lon="-71.10384472"/>
   <trkpt lat="42.35372385" lon="-71.10384472"/>
   <trkpt lat="42.35362348" lon="-71.1043898"/>
   <trkpt lat="42.35362348" lon="-71.1043898"/>
   <trkpt lat="42.35353763" lon="-71.10525146"/>
   <trkpt lat="42.35353763" lon="-71.10525146"/>
   <trkpt lat="42.35349646" lon="-71.10606438"/>
   <trkpt lat="42.35349646" lon="-71.10606438"/>
   <trkpt lat="42.35347267" lon="-71.10666519"/>
   <trkpt lat="42.35347267" lon="-71.10666519"/>
   <trkpt lat="42.35344512" lon="-71.10726226"/>
   <trkpt lat="42.35344512" lon="-71.10726226"/>
   <trkpt lat="42.35348675" lon="-71.107678"/>
   <trkpt lat="42.35348675" lon="-71.107678"/>
   <trkpt lat="42.35350657" lon="-71.10806692"/>
   <trkpt lat="42.35350657" lon="-71.10806692"/>
   <trkpt lat="42.35356603" lon="-71.10866305"/>
   <trkpt lat="42.35356603" lon="-71.10866305"/>
   <trkpt lat="42.35362748" lon="-71.10903051"/>
   <trkpt lat="42.35362748" lon="-71.10903051"/>
   <trkpt lat="42.35371073" lon="-71.10944625"/>
   <trkpt lat="42.35371073" lon="-71.10944625"/>
   <trkpt lat="42.35376028" lon="-71.10961523"/>
   <trkpt lat="42.35376028" lon="-71.10961523"/>
   <trkpt lat="42.35385544" lon="-71.10988885"/>
   <trkpt lat="42.35385544" lon="-71.10988885"/>
   <trkpt lat="42.35397041" lon="-71.11016511"/>
   <trkpt lat="42.35397041" lon="-71.11016511"/>
   <trkpt lat="42.35419439" lon="-71.11060231"/>
   <trkpt lat="42.35419439" lon="-71.11060231"/>
   <trkpt lat="42.35433189" lon="-71.11082911"/>
   <trkpt lat="42.35433189" lon="-71.11082911"/>
   <trkpt lat="42.35461137" lon="-71.111328"/>
   <trkpt lat="42.35461137" lon="-71.111328"/>
   <trkpt lat="42.35491653" lon="-71.11189516"/>
   <trkpt lat="42.35491653" lon="-71.11189516"/>
   <trkpt lat="42.35512267" lon="-71.11225189"/>
   <trkpt lat="42.35512267" lon="-71.11225189"/>
   <trkpt lat="42.35530863" lon="-71.11259204"/>
   <trkpt lat="42.35530863" lon="-71.11259204"/>
   <trkpt lat="42.35551278" lon="-71.11294878"/>
   <trkpt lat="42.35551278" lon="-71.11294878"/>
   <trkpt lat="42.35562378" lon="-71.11315531"/>
   <trkpt lat="42.35562378" lon="-71.11315531"/>
   <trkpt lat="42.35579985" lon="-71.1134831"/>
   <trkpt lat="42.35579985" lon="-71.1134831"/>
   <trkpt lat="42.3560377" lon="-71.11385056"/>
   <trkpt lat="42.3560377" lon="-71.11385056"/>
   <trkpt lat="42.35621191" lon="-71.11409624"/>
   <trkpt lat="42.35621191" lon="-71.11409624"/>
   <trkpt lat="42.3563903" lon="-71.11434569"/>
   <trkpt lat="42.3563903" lon="-71.11434569"/>
   <trkpt lat="42.35669724" lon="-71.11464447"/>
   <trkpt lat="42.35669724" lon="-71.11464447"/>
   <trkpt lat="42.35697869" lon="-71.11488587"/>
   <trkpt lat="42.35697869" lon="-71.11488587"/>
   <trkpt lat="42.35726915" lon="-71.11507231"/>
   <trkpt lat="42.35726915" lon="-71.11507231"/>
   <trkpt lat="42.35762905" lon="-71.11525756"/>
   <trkpt lat="42.35762905" lon="-71.11525756"/>
   <trkpt lat="42.35795212" lon="-71.11537021"/>
   <trkpt lat="42.35795212" lon="-71.11537021"/>
   <trkpt lat="42.35852076" lon="-71.11552042"/>
   <trkpt lat="42.35852076" lon="-71.11552042"/>
   <trkpt lat="42.359201" lon="-71.11565657"/>
   <trkpt lat="42.359201" lon="-71.11565657"/>
   <trkpt lat="42.35992713" lon="-71.11575313"/>
   <trkpt lat="42.35992713" lon="-71.11575313"/>
   <trkpt lat="42.36071286" lon="-71.11586118"/>
   <trkpt lat="42.36071286" lon="-71.11586118"/>
   <trkpt lat="42.36139173" lon="-71.11595638"/>
   <trkpt lat="42.36139173" lon="-71.11595638"/>
   <trkpt lat="42.36170686" lon="-71.11599125"/>
   <trkpt lat="42.36170686" lon="-71.11599125"/>
   <trkpt lat="42.36251271" lon="-71.11605802"/>
   <trkpt lat="42.36251271" lon="-71.11605802"/>
   <trkpt lat="42.36350492" lon="-71.11607411"/>
   <trkpt lat="42.36350492" lon="-71.11607411"/>
   <trkpt lat="42.36410035" lon="-71.11607352"/>
   <trkpt lat="42.36410035" lon="-71.11607352"/>
   <trkpt lat="42.36472166" lon="-71.11603462"/>
   <trkpt lat="42.36472166" lon="-71.11603462"/>
   <trkpt lat="42.36527751" lon="-71.11598634"/>
   <trkpt lat="42.36527751" lon="-71.11598634"/>
   <trkpt lat="42.36585499" lon="-71.11593538"/>
   <trkpt lat="42.36585499" lon="-71.11593538"/>
   <trkpt lat="42.36613838" lon="-71.11592465"/>
   <trkpt lat="42.36613838" lon="-71.11592465"/>
   <trkpt lat="42.36645806" lon="-71.11595147"/>
   <trkpt lat="42.36645806" lon="-71.11595147"/>
   <trkpt lat="42.36696737" lon="-71.11607217"/>
   <trkpt lat="42.36696737" lon="-71.11607217"/>
   <trkpt lat="42.36755175" lon="-71.11626923"/>
   <trkpt lat="42.36755175" lon="-71.11626923"/>
   <trkpt lat="42.36808632" lon="-71.11650399"/>
   <trkpt lat="42.36808632" lon="-71.11650399"/>
   <trkpt lat="42.36844501" lon="-71.11669174"/>
   <trkpt lat="42.36844501" lon="-71.11669174"/>
   <trkpt lat="42.36866561" lon="-71.1168315"/>
   <trkpt lat="42.36866561" lon="-71.1168315"/>
   <trkpt lat="42.36893116" lon="-71.11703267"/>
   <trkpt lat="42.36893116" lon="-71.11703267"/>
   <trkpt lat="42.36921778" lon="-71.11735942"/>
   <trkpt lat="42.36921778" lon="-71.11735942"/>
   <trkpt lat="42.36890072" lon="-71.11770274"/>
   <trkpt lat="42.36890072" lon="-71.11770274"/>
   <trkpt lat="42.36865895" lon="-71.11795755"/>
   <trkpt lat="42.36865895" lon="-71.11795755"/>
   <trkpt lat="42.36835437" lon="-71.11828279"/>
   <trkpt lat="42.36835437" lon="-71.11828279"/>
   <trkpt lat="42.3680908" lon="-71.11855905"/>
   <trkpt lat="42.3680908" lon="-71.11855905"/>
   <trkpt lat="42.36784003" lon="-71.11882666"/>
   <trkpt lat="42.36784003" lon="-71.11882666"/>
   <trkpt lat="42.36787768" lon="-71.1189259"/>
   <trkpt lat="42.36787768" lon="-71.1189259"/>
   <trkpt lat="42.36791534" lon="-71.1190627"/>
   <trkpt lat="42.36791534" lon="-71.1190627"/>
   <trkpt lat="42.36795101" lon="-71.11924777"/>
   <trkpt lat="42.36795101" lon="-71.11924777"/>
   <trkpt lat="42.36796737" lon="-71.11942074"/>
   <trkpt lat="42.36796737" lon="-71.11942074"/>
   <trkpt lat="42.36798322" lon="-71.11966214"/>
   <trkpt lat="42.36798322" lon="-71.11966214"/>
   <trkpt lat="42.36799907" lon="-71.11994645"/>
   <trkpt lat="42.36799907" lon="-71.11994645"/>
   <trkpt lat="42.36801096" lon="-71.12032007"/>
   <trkpt lat="42.36801096" lon="-71.12032007"/>
   <trkpt lat="42.36802484" lon="-71.12064998"/>
   <trkpt lat="42.36802484" lon="-71.12064998"/>
   <trkpt lat="42.36803474" lon="-71.12102549"/>
   <trkpt lat="42.36803474" lon="-71.12102549"/>
   <trkpt lat="42.36803673" lon="-71.1213673"/>
   <trkpt lat="42.36803673" lon="-71.1213673"/>
   <trkpt lat="42.36803871" lon="-71.1216382"/>
   <trkpt lat="42.36803871" lon="-71.1216382"/>
   <trkpt lat="42.3680506" lon="-71.12184473"/>
   <trkpt lat="42.3680506" lon="-71.12184473"/>
   <trkpt lat="42.36809816" lon="-71.1221961"/>
   <trkpt lat="42.36809816" lon="-71.1221961"/>
   <trkpt lat="42.36813977" lon="-71.12243435"/>
   <trkpt lat="42.36813977" lon="-71.12243435"/>
   <trkpt lat="42.36820121" lon="-71.12269989"/>
   <trkpt lat="42.36820121" lon="-71.12269989"/>
   <trkpt lat="42.36827453" lon="-71.12294665"/>
   <trkpt lat="42.36827453" lon="-71.12294665"/>
   <trkpt lat="42.36834785" lon="-71.1231505"/>
   <trkpt lat="42.36834785" lon="-71.1231505"/>
   <trkpt lat="42.36849846" lon="-71.12357161"/>
   <trkpt lat="42.36849846" lon="-71.12357161"/>
   <trkpt lat="42.36804069" lon="-71.12400344"/>
   <trkpt lat="42.36804069" lon="-71.12400344"/>
   <trkpt lat="42.36775731" lon="-71.1242958"/>
   <trkpt lat="42.36775731" lon="-71.1242958"/>
   <trkpt lat="42.36730084" lon="-71.12473424"/>
   <trkpt lat="42.36730084" lon="-71.12473424"/>
   <trkpt lat="42.36680946" lon="-71.12520084"/>
   <trkpt lat="42.36680946" lon="-71.12520084"/>
   <trkpt lat="42.36643252" lon="-71.12559891"/>
   <trkpt lat="42.36643252" lon="-71.12559891"/>
   <trkpt lat="42.36611346" lon="-71.12592882"/>
   <trkpt lat="42.36611346" lon="-71.12592882"/>
   <trkpt lat="42.36588556" lon="-71.12619704"/>
   <trkpt lat="42.36588556" lon="-71.12619704"/>
   <trkpt lat="42.36568144" lon="-71.12645722"/>
   <trkpt lat="42.36568144" lon="-71.12645722"/>
   <trkpt lat="42.3655328" lon="-71.12668252"/>
   <trkpt lat="42.3655328" lon="-71.12668252"/>
   <trkpt lat="42.36559027" lon="-71.12677104"/>
   <trkpt lat="42.36559027" lon="-71.12677104"/>
   <trkpt lat="42.36571116" lon="-71.12691588"/>
   <trkpt lat="42.36571116" lon="-71.12691588"/>
   <trkpt lat="42.36579638" lon="-71.12674422"/>
   <trkpt lat="42.36579638" lon="-71.12674422"/>
   <trkpt lat="42.36586772" lon="-71.12659401"/>
   <trkpt lat="42.36586772" lon="-71.12659401"/>
   <trkpt lat="42.36593907" lon="-71.12646795"/>
   <trkpt lat="42.36593907" lon="-71.12646795"/>
   <trkpt lat="42.36607184" lon="-71.12632043"/>
   <trkpt lat="42.36607184" lon="-71.12632043"/>
   <trkpt lat="42.36621453" lon="-71.12617559"/>
   <trkpt lat="42.36621453" lon="-71.12617559"/>
   <trkpt lat="42.36633542" lon="-71.12605757"/>
   <trkpt lat="42.36633542" lon="-71.12605757"/>
   <trkpt lat="42.36646225" lon="-71.12593151"/>
   <trkpt lat="42.36646225" lon="-71.12593151"/>
   <trkpt lat="42.36669302" lon="-71.1256406"/>
   <trkpt lat="42.36669302" lon="-71.1256406"/>
   <trkpt lat="42.36675842" lon="-71.12554404"/>
   <trkpt lat="42.36675842" lon="-71.12554404"/>
   <trkpt lat="42.36688129" lon="-71.12544748"/>
   <trkpt lat="42.36688129" lon="-71.12544748"/>
   <trkpt lat="42.36727642" lon="-71.12616632"/>
   <trkpt lat="42.36727642" lon="-71.12616632"/>
   <trkpt lat="42.36718113" lon="-71.12622264"/>
   <trkpt lat="42.36718113" lon="-71.12622264"/>
   <trkpt lat="42.36696533" lon="-71.1263192"/>
   <trkpt lat="42.36696533" lon="-71.1263192"/>
   <trkpt lat="42.36687565" lon="-71.12642917"/>
   <trkpt lat="42.36687565" lon="-71.12642917"/>
   <trkpt lat="42.36674112" lon="-71.1265606"/>
   <trkpt lat="42.36674112" lon="-71.1265606"/>
   <trkpt lat="42.36655054" lon="-71.12674567"/>
   <trkpt lat="42.36655054" lon="-71.12674567"/>
   <trkpt lat="42.36641041" lon="-71.12687442"/>
   <trkpt lat="42.36641041" lon="-71.12687442"/>
   <trkpt lat="42.36627589" lon="-71.12695883"/>
   <trkpt lat="42.36627589" lon="-71.12695883"/>
   <trkpt lat="42.36622824" lon="-71.12707417"/>
   <trkpt lat="42.36622824" lon="-71.12707417"/>
   <trkpt lat="42.36624225" lon="-71.12717073"/>
   <trkpt lat="42.36624225" lon="-71.12717073"/>
   <trkpt lat="42.36627308" lon="-71.12724315"/>
   <trkpt lat="42.36627308" lon="-71.12724315"/>
   <trkpt lat="42.36632073" lon="-71.1273102"/>
   <trkpt lat="42.36632073" lon="-71.1273102"/>
   <trkpt lat="42.36637398" lon="-71.12737189"/>
   <trkpt lat="42.36637398" lon="-71.12737189"/>
   <trkpt lat="42.36643003" lon="-71.12742285"/>
   <trkpt lat="42.36643003" lon="-71.12742285"/>
   <trkpt lat="42.36657016" lon="-71.12732361"/>
   <trkpt lat="42.36657016" lon="-71.12732361"/>
   <trkpt lat="42.3668252" lon="-71.12707148"/>
   <trkpt lat="42.3668252" lon="-71.12707148"/>
   <trkpt lat="42.3671531" lon="-71.12678181"/>
   <trkpt lat="42.3671531" lon="-71.12678181"/>
   <trkpt lat="42.36741374" lon="-71.12653504"/>
   <trkpt lat="42.36741374" lon="-71.12653504"/>
   <trkpt lat="42.36748381" lon="-71.12663428"/>
   <trkpt lat="42.36748381" lon="-71.12663428"/>
   <trkpt lat="42.36758301" lon="-71.12679325"/>
   <trkpt lat="42.36758301" lon="-71.12679325"/>
   <trkpt lat="42.36765039" lon="-71.12694077"/>
   <trkpt lat="42.36765039" lon="-71.12694077"/>
   <trkpt lat="42.36746609" lon="-71.12714999"/>
   <trkpt lat="42.36746609" lon="-71.12714999"/>
   <trkpt lat="42.36729368" lon="-71.12732701"/>
   <trkpt lat="42.36729368" lon="-71.12732701"/>
   <trkpt lat="42.36709947" lon="-71.12748794"/>
   <trkpt lat="42.36709947" lon="-71.12748794"/>
   <trkpt lat="42.36695877" lon="-71.12758182"/>
   <trkpt lat="42.36695877" lon="-71.12758182"/>
   <trkpt lat="42.36686983" lon="-71.12767347"/>
   <trkpt lat="42.36686983" lon="-71.12767347"/>
   <trkpt lat="42.36674697" lon="-71.12778612"/>
   <trkpt lat="42.36674697" lon="-71.12778612"/>
   <trkpt lat="42.36663203" lon="-71.12787732"/>
   <trkpt lat="42.36663203" lon="-71.12787732"/>
   <trkpt lat="42.36650916" lon="-71.1279256"/>
   <trkpt lat="42.36650916" lon="-71.1279256"/>
   <trkpt lat="42.36629382" lon="-71.12794586"/>
   <trkpt lat="42.36629382" lon="-71.12794586"/>
   <trkpt lat="42.36627599" lon="-71.12812825"/>
   <trkpt lat="42.36627599" lon="-71.12812825"/>
   <trkpt lat="42.36624824" lon="-71.12825968"/>
   <trkpt lat="42.36624824" lon="-71.12825968"/>
   <trkpt lat="42.36618086" lon="-71.12846621"/>
   <trkpt lat="42.36618086" lon="-71.12846621"/>
   <trkpt lat="42.36612537" lon="-71.12865396"/>
   <trkpt lat="42.36612537" lon="-71.12865396"/>
   <trkpt lat="42.36609961" lon="-71.12884976"/>
   <trkpt lat="42.36609961" lon="-71.12884976"/>
   <trkpt lat="42.36609565" lon="-71.12903215"/>
   <trkpt lat="42.36609565" lon="-71.12903215"/>
   <trkpt lat="42.3661115" lon="-71.12925478"/>
   <trkpt lat="42.3661115" lon="-71.12925478"/>
   <trkpt lat="42.3661551" lon="-71.12953373"/>
   <trkpt lat="42.3661551" lon="-71.12953373"/>
   <trkpt lat="42.36626081" lon="-71.12985106"/>
   <trkpt lat="42.36626081" lon="-71.12985106"/>
   <trkpt lat="42.36642332" lon="-71.13022388"/>
   <trkpt lat="42.36642332" lon="-71.13022388"/>
   <trkpt lat="42.36655048" lon="-71.13046816"/>
   <trkpt lat="42.36655048" lon="-71.13046816"/>
   <trkpt lat="42.36663966" lon="-71.13062104"/>
   <trkpt lat="42.36663966" lon="-71.13062104"/>
   <trkpt lat="42.36673875" lon="-71.13077929"/>
   <trkpt lat="42.36673875" lon="-71.13077929"/>
   <trkpt lat="42.36680018" lon="-71.13087853"/>
   <trkpt lat="42.36680018" lon="-71.13087853"/>
   <trkpt lat="42.36687945" lon="-71.13097509"/>
   <trkpt lat="42.36687945" lon="-71.13097509"/>
   <trkpt lat="42.36698052" lon="-71.13100996"/>
   <trkpt lat="42.36698052" lon="-71.13100996"/>
   <trkpt lat="42.36711528" lon="-71.13100192"/>
   <trkpt lat="42.36711528" lon="-71.13100192"/>
   <trkpt lat="42.36750109" lon="-71.13074897"/>
   <trkpt lat="42.36750109" lon="-71.13074897"/>
   <trkpt lat="42.36777853" lon="-71.13056121"/>
   <trkpt lat="42.36777853" lon="-71.13056121"/>
   <trkpt lat="42.36799828" lon="-71.13042442"/>
   <trkpt lat="42.36799828" lon="-71.13042442"/>
   <trkpt lat="42.36819645" lon="-71.13032249"/>
   <trkpt lat="42.36819645" lon="-71.13032249"/>
   <trkpt lat="42.36846961" lon="-71.13019813"/>
   <trkpt lat="42.36846961" lon="-71.13019813"/>
   <trkpt lat="42.36867174" lon="-71.13013107"/>
   <trkpt lat="42.36867174" lon="-71.13013107"/>
   <trkpt lat="42.36885207" lon="-71.13007743"/>
   <trkpt lat="42.36885207" lon="-71.13007743"/>
   <trkpt lat="42.36906411" lon="-71.13000501"/>
   <trkpt lat="42.36906411" lon="-71.13000501"/>
   <trkpt lat="42.36923057" lon="-71.12996746"/>
   <trkpt lat="42.36923057" lon="-71.12996746"/>
   <trkpt lat="42.36950007" lon="-71.12996746"/>
   <trkpt lat="42.36950007" lon="-71.12996746"/>
   <trkpt lat="42.36970929" lon="-71.12995404"/>
   <trkpt lat="42.36970929" lon="-71.12995404"/>
   <trkpt lat="42.36987179" lon="-71.12993527"/>
   <trkpt lat="42.36987179" lon="-71.12993527"/>
   <trkpt lat="42.37040814" lon="-71.12989772"/>
   <trkpt lat="42.37040814" lon="-71.12989772"/>
   <trkpt lat="42.37032312" lon="-71.12946856"/>
   <trkpt lat="42.37032312" lon="-71.12946856"/>
   <trkpt lat="42.37026707" lon="-71.12913329"/>
   <trkpt lat="42.37026707" lon="-71.12913329"/>
   <trkpt lat="42.37024465" lon="-71.12902332"/>
   <trkpt lat="42.37024465" lon="-71.12902332"/>
   <trkpt lat="42.3701914" lon="-71.1287095"/>
   <trkpt lat="42.3701914" lon="-71.1287095"/>
   <trkpt lat="42.37011854" lon="-71.12833399"/>
   <trkpt lat="42.37011854" lon="-71.12833399"/>
   <trkpt lat="42.37009612" lon="-71.12828839"/>
   <trkpt lat="42.37009612" lon="-71.12828839"/>
   <trkpt lat="42.36994759" lon="-71.12822402"/>
   <trkpt lat="42.36994759" lon="-71.12822402"/>
   <trkpt lat="42.36973356" lon="-71.12814677"/>
   <trkpt lat="42.36973356" lon="-71.12814677"/>
   <trkpt lat="42.36954579" lon="-71.12805558"/>
   <trkpt lat="42.36954579" lon="-71.12805558"/>
   <trkpt lat="42.36942249" lon="-71.1279566"/>
   <trkpt lat="42.36942249" lon="-71.1279566"/>
   <trkpt lat="42.36935523" lon="-71.12788418"/>
   <trkpt lat="42.36935523" lon="-71.12788418"/>
   <trkpt lat="42.36926835" lon="-71.12785468"/>
   <trkpt lat="42.36926835" lon="-71.12785468"/>
   <trkpt lat="42.36919268" lon="-71.12781176"/>
   <trkpt lat="42.36919268" lon="-71.12781176"/>
   <trkpt lat="42.369103" lon="-71.12766697"/>
   <trkpt lat="42.369103" lon="-71.12766697"/>
   <trkpt lat="42.36912262" lon="-71.12757041"/>
   <trkpt lat="42.36912262" lon="-71.12757041"/>
   <trkpt lat="42.36913663" lon="-71.12741753"/>
   <trkpt lat="42.36913663" lon="-71.12741753"/>
   <trkpt lat="42.36920389" lon="-71.1273156"/>
   <trkpt lat="42.36920389" lon="-71.1273156"/>
   <trkpt lat="42.36933281" lon="-71.12716004"/>
   <trkpt lat="42.36933281" lon="-71.12716004"/>
   <trkpt lat="42.36943089" lon="-71.12696155"/>
   <trkpt lat="42.36943089" lon="-71.12696155"/>
   <trkpt lat="42.36952337" lon="-71.1267521"/>
   <trkpt lat="42.36952337" lon="-71.1267521"/>
   <trkpt lat="42.36933561" lon="-71.12652948"/>
   <trkpt lat="42.36933561" lon="-71.12652948"/>
   <trkpt lat="42.36917867" lon="-71.12633368"/>
   <trkpt lat="42.36917867" lon="-71.12633368"/>
   <trkpt lat="42.3689853" lon="-71.12609228"/>
   <trkpt lat="42.3689853" lon="-71.12609228"/>
   <trkpt lat="42.36877305" lon="-71.12571283"/>
   <trkpt lat="42.36877305" lon="-71.12571283"/>
   <trkpt lat="42.3686077" lon="-71.12529977"/>
   <trkpt lat="42.3686077" lon="-71.12529977"/>
   <trkpt lat="42.36854605" lon="-71.12502351"/>
   <trkpt lat="42.36854605" lon="-71.12502351"/>
   <trkpt lat="42.36841433" lon="-71.12466409"/>
   <trkpt lat="42.36841433" lon="-71.12466409"/>
   <trkpt lat="42.36829662" lon="-71.12435564"/>
   <trkpt lat="42.36829662" lon="-71.12435564"/>
   <trkpt lat="42.36819853" lon="-71.12409815"/>
   <trkpt lat="42.36819853" lon="-71.12409815"/>
   <trkpt lat="42.36823216" lon="-71.12400427"/>
   <trkpt lat="42.36823216" lon="-71.12400427"/>
   <trkpt lat="42.36830503" lon="-71.12391575"/>
   <trkpt lat="42.36830503" lon="-71.12391575"/>
   <trkpt lat="42.36855165" lon="-71.12372532"/>
   <trkpt lat="42.36855165" lon="-71.12372532"/>
   <trkpt lat="42.36863293" lon="-71.12393721"/>
   <trkpt lat="42.36863293" lon="-71.12393721"/>
   <trkpt lat="42.36870299" lon="-71.12414106"/>
   <trkpt lat="42.36870299" lon="-71.12414106"/>
   <trkpt lat="42.36877305" lon="-71.12438514"/>
   <trkpt lat="42.36877305" lon="-71.12438514"/>
   <trkpt lat="42.36885152" lon="-71.12460776"/>
   <trkpt lat="42.36885152" lon="-71.12460776"/>
   <trkpt lat="42.36894401" lon="-71.12484916"/>
   <trkpt lat="42.36894401" lon="-71.12484916"/>
   <trkpt lat="42.36901556" lon="-71.12505838"/>
   <trkpt lat="42.36901556" lon="-71.12505838"/>
   <trkpt lat="42.36909879" lon="-71.125281"/>
   <trkpt lat="42.36909879" lon="-71.125281"/>
   <trkpt lat="42.36917211" lon="-71.12547948"/>
   <trkpt lat="42.36917211" lon="-71.12547948"/>
   <trkpt lat="42.36926723" lon="-71.12572625"/>
   <trkpt lat="42.36926723" lon="-71.12572625"/>
   <trkpt lat="42.36938271" lon="-71.12591262"/>
   <trkpt lat="42.36938271" lon="-71.12591262"/>
   <trkpt lat="42.36947584" lon="-71.12604136"/>
   <trkpt lat="42.36947584" lon="-71.12604136"/>
   <trkpt lat="42.36954124" lon="-71.12610305"/>
   <trkpt lat="42.36954124" lon="-71.12610305"/>
   <trkpt lat="42.3696106" lon="-71.12615938"/>
   <trkpt lat="42.3696106" lon="-71.12615938"/>
   <trkpt lat="42.36969581" lon="-71.12620229"/>
   <trkpt lat="42.36969581" lon="-71.12620229"/>
   <trkpt lat="42.3697612" lon="-71.12623716"/>
   <trkpt lat="42.3697612" lon="-71.12623716"/>
   <trkpt lat="42.36979093" lon="-71.12628544"/>
   <trkpt lat="42.36979093" lon="-71.12628544"/>
   <trkpt lat="42.36984272" lon="-71.12636359"/>
   <trkpt lat="42.36984272" lon="-71.12636359"/>
   <trkpt lat="42.36995171" lon="-71.12643333"/>
   <trkpt lat="42.36995171" lon="-71.12643333"/>
   <trkpt lat="42.37002107" lon="-71.12647893"/>
   <trkpt lat="42.37002107" lon="-71.12647893"/>
   <trkpt lat="42.37010429" lon="-71.12650575"/>
   <trkpt lat="42.37010429" lon="-71.12650575"/>
   <trkpt lat="42.37023706" lon="-71.12651916"/>
   <trkpt lat="42.37023706" lon="-71.12651916"/>
   <trkpt lat="42.37044105" lon="-71.12653137"/>
   <trkpt lat="42.37044105" lon="-71.12653137"/>
   <trkpt lat="42.37065704" lon="-71.12655014"/>
   <trkpt lat="42.37065704" lon="-71.12655014"/>
   <trkpt lat="42.37088132" lon="-71.12657428"/>
   <trkpt lat="42.37088132" lon="-71.12657428"/>
   <trkpt lat="42.37103588" lon="-71.12659574"/>
   <trkpt lat="42.37103588" lon="-71.12659574"/>
   <trkpt lat="42.3712063" lon="-71.12662793"/>
   <trkpt lat="42.3712063" lon="-71.12662793"/>
   <trkpt lat="42.37145693" lon="-71.12667889"/>
   <trkpt lat="42.37145693" lon="-71.12667889"/>
   <trkpt lat="42.37163329" lon="-71.12672985"/>
   <trkpt lat="42.37163329" lon="-71.12672985"/>
   <trkpt lat="42.37179182" lon="-71.12680763"/>
   <trkpt lat="42.37179182" lon="-71.12680763"/>
   <trkpt lat="42.37197387" lon="-71.12690626"/>
   <trkpt lat="42.37197387" lon="-71.12690626"/>
   <trkpt lat="42.3720987" lon="-71.12699209"/>
   <trkpt lat="42.3720987" lon="-71.12699209"/>
   <trkpt lat="42.37224138" lon="-71.12709133"/>
   <trkpt lat="42.37224138" lon="-71.12709133"/>
   <trkpt lat="42.37237356" lon="-71.12720474"/>
   <trkpt lat="42.37237356" lon="-71.12720474"/>
   <trkpt lat="42.37246867" lon="-71.12729861"/>
   <trkpt lat="42.37246867" lon="-71.12729861"/>
   <trkpt lat="42.37258955" lon="-71.1274515"/>
   <trkpt lat="42.37258955" lon="-71.1274515"/>
   <trkpt lat="42.37267475" lon="-71.12756683"/>
   <trkpt lat="42.37267475" lon="-71.12756683"/>
   <trkpt lat="42.37278572" lon="-71.12773313"/>
   <trkpt lat="42.37278572" lon="-71.12773313"/>
   <trkpt lat="42.3728681" lon="-71.12788786"/>
   <trkpt lat="42.3728681" lon="-71.12788786"/>
   <trkpt lat="42.37293547" lon="-71.12803806"/>
   <trkpt lat="42.37293547" lon="-71.12803806"/>
   <trkpt lat="42.37298897" lon="-71.12815071"/>
   <trkpt lat="42.37298897" lon="-71.12815071"/>
   <trkpt lat="42.37304247" lon="-71.12829555"/>
   <trkpt lat="42.37304247" lon="-71.12829555"/>
   <trkpt lat="42.37309201" lon="-71.12846185"/>
   <trkpt lat="42.37309201" lon="-71.12846185"/>
   <trkpt lat="42.37315344" lon="-71.12865765"/>
   <trkpt lat="42.37315344" lon="-71.12865765"/>
   <trkpt lat="42.37321487" lon="-71.12897952"/>
   <trkpt lat="42.37321487" lon="-71.12897952"/>
   <trkpt lat="42.37323468" lon="-71.12915654"/>
   <trkpt lat="42.37323468" lon="-71.12915654"/>
   <trkpt lat="42.37324855" lon="-71.12935771"/>
   <trkpt lat="42.37324855" lon="-71.12935771"/>
   <trkpt lat="42.37324855" lon="-71.12956156"/>
   <trkpt lat="42.37324855" lon="-71.12956156"/>
   <trkpt lat="42.37323865" lon="-71.12976938"/>
   <trkpt lat="42.37323865" lon="-71.12976938"/>
   <trkpt lat="42.37321487" lon="-71.13000005"/>
   <trkpt lat="42.37321487" lon="-71.13000005"/>
   <trkpt lat="42.37318118" lon="-71.13018512"/>
   <trkpt lat="42.37318118" lon="-71.13018512"/>
   <trkpt lat="42.37313561" lon="-71.13036214"/>
   <trkpt lat="42.37313561" lon="-71.13036214"/>
   <trkpt lat="42.37308805" lon="-71.13051771"/>
   <trkpt lat="42.37308805" lon="-71.13051771"/>
   <trkpt lat="42.37300961" lon="-71.13070704"/>
   <trkpt lat="42.37300961" lon="-71.13070704"/>
   <trkpt lat="42.37282731" lon="-71.13106377"/>
   <trkpt lat="42.37282731" lon="-71.13106377"/>
   <trkpt lat="42.37268142" lon="-71.13132485"/>
   <trkpt lat="42.37268142" lon="-71.13132485"/>
   <trkpt lat="42.37253479" lon="-71.13158771"/>
   <trkpt lat="42.37253479" lon="-71.13158771"/>
   <trkpt lat="42.37233886" lon="-71.13193303"/>
   <trkpt lat="42.37233886" lon="-71.13193303"/>
   <trkpt lat="42.3723567" lon="-71.13202691"/>
   <trkpt lat="42.3723567" lon="-71.13202691"/>
   <trkpt lat="42.37237057" lon="-71.13214761"/>
   <trkpt lat="42.37237057" lon="-71.13214761"/>
   <trkpt lat="42.37235471" lon="-71.1323005"/>
   <trkpt lat="42.37235471" lon="-71.1323005"/>
   <trkpt lat="42.37233292" lon="-71.13254726"/>
   <trkpt lat="42.37233292" lon="-71.13254726"/>
   <trkpt lat="42.37225762" lon="-71.13254458"/>
   <trkpt lat="42.37225762" lon="-71.13254458"/>
   <trkpt lat="42.37217439" lon="-71.13250166"/>
   <trkpt lat="42.37217439" lon="-71.13250166"/>
   <trkpt lat="42.37206541" lon="-71.13241047"/>
   <trkpt lat="42.37206541" lon="-71.13241047"/>
   <trkpt lat="42.37180546" lon="-71.13220962"/>
   <trkpt lat="42.37180546" lon="-71.13220962"/>
   <trkpt lat="42.37173412" lon="-71.1321372"/>
   <trkpt lat="42.37173412" lon="-71.1321372"/>
   <trkpt lat="42.37166081" lon="-71.13204868"/>
   <trkpt lat="42.37166081" lon="-71.13204868"/>
   <trkpt lat="42.37155776" lon="-71.13189043"/>
   <trkpt lat="42.37155776" lon="-71.13189043"/>
   <trkpt lat="42.37144307" lon="-71.13172971"/>
   <trkpt lat="42.37144307" lon="-71.13172971"/>
   <trkpt lat="42.37129841" lon="-71.13154464"/>
   <trkpt lat="42.37129841" lon="-71.13154464"/>
   <trkpt lat="42.37119933" lon="-71.13142394"/>
   <trkpt lat="42.37119933" lon="-71.13142394"/>
   <trkpt lat="42.37104477" lon="-71.13128178"/>
   <trkpt lat="42.37104477" lon="-71.13128178"/>
   <trkpt lat="42.3707969" lon="-71.13110197"/>
   <trkpt lat="42.3707969" lon="-71.13110197"/>
   <trkpt lat="42.37063045" lon="-71.13100004"/>
   <trkpt lat="42.37063045" lon="-71.13100004"/>
   <trkpt lat="42.37044219" lon="-71.13091153"/>
   <trkpt lat="42.37044219" lon="-71.13091153"/>
   <trkpt lat="42.37020491" lon="-71.13084214"/>
   <trkpt lat="42.37020491" lon="-71.13084214"/>
   <trkpt lat="42.37006817" lon="-71.13081531"/>
   <trkpt lat="42.37006817" lon="-71.13081531"/>
   <trkpt lat="42.36991559" lon="-71.13079654"/>
   <trkpt lat="42.36991559" lon="-71.13079654"/>
   <trkpt lat="42.36976498" lon="-71.13079117"/>
   <trkpt lat="42.36976498" lon="-71.13079117"/>
   <trkpt lat="42.36958792" lon="-71.13081142"/>
   <trkpt lat="42.36958792" lon="-71.13081142"/>
   <trkpt lat="42.36943137" lon="-71.13084629"/>
   <trkpt lat="42.36943137" lon="-71.13084629"/>
   <trkpt lat="42.36926689" lon="-71.13088921"/>
   <trkpt lat="42.36926689" lon="-71.13088921"/>
   <trkpt lat="42.36913214" lon="-71.13092944"/>
   <trkpt lat="42.36913214" lon="-71.13092944"/>
   <trkpt lat="42.36892219" lon="-71.13103137"/>
   <trkpt lat="42.36892219" lon="-71.13103137"/>
   <trkpt lat="42.36863606" lon="-71.13121376"/>
   <trkpt lat="42.36863606" lon="-71.13121376"/>
   <trkpt lat="42.36844549" lon="-71.13139346"/>
   <trkpt lat="42.36844549" lon="-71.13139346"/>
   <trkpt lat="42.36833339" lon="-71.13149002"/>
   <trkpt lat="42.36833339" lon="-71.13149002"/>
   <trkpt lat="42.36813831" lon="-71.13171195"/>
   <trkpt lat="42.36813831" lon="-71.13171195"/>
   <trkpt lat="42.36805984" lon="-71.13183801"/>
   <trkpt lat="42.36805984" lon="-71.13183801"/>
   <trkpt lat="42.36799538" lon="-71.13191311"/>
   <trkpt lat="42.36799538" lon="-71.13191311"/>
   <trkpt lat="42.36786086" lon="-71.13214355"/>
   <trkpt lat="42.36786086" lon="-71.13214355"/>
   <trkpt lat="42.36778799" lon="-71.13230448"/>
   <trkpt lat="42.36778799" lon="-71.13230448"/>
   <trkpt lat="42.36770055" lon="-71.13247615"/>
   <trkpt lat="42.36770055" lon="-71.13247615"/>
   <trkpt lat="42.36758957" lon="-71.13276314"/>
   <trkpt lat="42.36758957" lon="-71.13276314"/>
   <trkpt lat="42.36753146" lon="-71.13294996"/>
   <trkpt lat="42.36753146" lon="-71.13294996"/>
   <trkpt lat="42.36747597" lon="-71.13315381"/>
   <trkpt lat="42.36747597" lon="-71.13315381"/>
   <trkpt lat="42.36745021" lon="-71.13331474"/>
   <trkpt lat="42.36745021" lon="-71.13331474"/>
   <trkpt lat="42.36741255" lon="-71.13347835"/>
   <trkpt lat="42.36741255" lon="-71.13347835"/>
   <trkpt lat="42.36735455" lon="-71.13379486"/>
   <trkpt lat="42.36735455" lon="-71.13379486"/>
   <trkpt lat="42.36728915" lon="-71.13402821"/>
   <trkpt lat="42.36728915" lon="-71.13402821"/>
   <trkpt lat="42.36726339" lon="-71.13410331"/>
   <trkpt lat="42.36726339" lon="-71.13410331"/>
   <trkpt lat="42.36725744" lon="-71.13419987"/>
   <trkpt lat="42.36725744" lon="-71.13419987"/>
   <trkpt lat="42.36721384" lon="-71.13435007"/>
   <trkpt lat="42.36721384" lon="-71.13435007"/>
   <trkpt lat="42.36716628" lon="-71.13451063"/>
   <trkpt lat="42.36716628" lon="-71.13451063"/>
   <trkpt lat="42.36709098" lon="-71.13476007"/>
   <trkpt lat="42.36709098" lon="-71.13476007"/>
   <trkpt lat="42.36702954" lon="-71.13496124"/>
   <trkpt lat="42.36702954" lon="-71.13496124"/>
   <trkpt lat="42.3669582" lon="-71.1351624"/>
   <trkpt lat="42.3669582" lon="-71.1351624"/>
   <trkpt lat="42.36689478" lon="-71.13534211"/>
   <trkpt lat="42.36689478" lon="-71.13534211"/>
   <trkpt lat="42.36677417" lon="-71.13559424"/>
   <trkpt lat="42.36677417" lon="-71.13559424"/>
   <trkpt lat="42.36664245" lon="-71.13559692"/>
   <trkpt lat="42.36664245" lon="-71.13559692"/>
   <trkpt lat="42.36647429" lon="-71.13564252"/>
   <trkpt lat="42.36647429" lon="-71.13564252"/>
   <trkpt lat="42.36635658" lon="-71.13571494"/>
   <trkpt lat="42.36635658" lon="-71.13571494"/>
   <trkpt lat="42.36625849" lon="-71.13579272"/>
   <trkpt lat="42.36625849" lon="-71.13579272"/>
   <trkpt lat="42.36613518" lon="-71.13585173"/>
   <trkpt lat="42.36613518" lon="-71.13585173"/>
   <trkpt lat="42.36596421" lon="-71.13585441"/>
   <trkpt lat="42.36596421" lon="-71.13585441"/>
   <trkpt lat="42.3657344" lon="-71.13586246"/>
   <trkpt lat="42.3657344" lon="-71.13586246"/>
   <trkpt lat="42.36553213" lon="-71.13623954"/>
   <trkpt lat="42.36553213" lon="-71.13623954"/>
   <trkpt lat="42.36536957" lon="-71.13656677"/>
   <trkpt lat="42.36536957" lon="-71.13656677"/>
   <trkpt lat="42.36508135" lon="-71.13714881"/>
   <trkpt lat="42.36508135" lon="-71.13714881"/>
   <trkpt lat="42.36490478" lon="-71.13749213"/>
   <trkpt lat="42.36490478" lon="-71.13749213"/>
   <trkpt lat="42.3648179" lon="-71.13769866"/>
   <trkpt lat="42.3648179" lon="-71.13769866"/>
   <trkpt lat="42.36477305" lon="-71.13789446"/>
   <trkpt lat="42.36477305" lon="-71.13789446"/>
   <trkpt lat="42.364717" lon="-71.13809295"/>
   <trkpt lat="42.364717" lon="-71.13809295"/>
   <trkpt lat="42.36466375" lon="-71.13820828"/>
   <trkpt lat="42.36466375" lon="-71.13820828"/>
   <trkpt lat="42.36458437" lon="-71.13833703"/>
   <trkpt lat="42.36458437" lon="-71.13833703"/>
   <trkpt lat="42.36447339" lon="-71.13845504"/>
   <trkpt lat="42.36447339" lon="-71.13845504"/>
   <trkpt lat="42.36436835" lon="-71.13860793"/>
   <trkpt lat="42.36436835" lon="-71.13860793"/>
   <trkpt lat="42.36431088" lon="-71.13873668"/>
   <trkpt lat="42.36431088" lon="-71.13873668"/>
   <trkpt lat="42.36430494" lon="-71.13881446"/>
   <trkpt lat="42.36430494" lon="-71.13881446"/>
   <trkpt lat="42.36425737" lon="-71.13895662"/>
   <trkpt lat="42.36425737" lon="-71.13895662"/>
   <trkpt lat="42.36419502" lon="-71.1391483"/>
   <trkpt lat="42.36419502" lon="-71.1391483"/>
   <trkpt lat="42.36414349" lon="-71.13923681"/>
   <trkpt lat="42.36414349" lon="-71.13923681"/>
   <trkpt lat="42.36404638" lon="-71.1394943"/>
   <trkpt lat="42.36404638" lon="-71.1394943"/>
   <trkpt lat="42.36398327" lon="-71.13966297"/>
   <trkpt lat="42.36398327" lon="-71.13966297"/>
   <trkpt lat="42.36393769" lon="-71.13980512"/>
   <trkpt lat="42.36393769" lon="-71.13980512"/>
   <trkpt lat="42.36391787" lon="-71.13989096"/>
   <trkpt lat="42.36391787" lon="-71.13989096"/>
   <trkpt lat="42.36390796" lon="-71.1399902"/>
   <trkpt lat="42.36390796" lon="-71.1399902"/>
   <trkpt lat="42.36392976" lon="-71.14021014"/>
   <trkpt lat="42.36392976" lon="-71.14021014"/>
   <trkpt lat="42.36394939" lon="-71.14043392"/>
   <trkpt lat="42.36394939" lon="-71.14043392"/>
   <trkpt lat="42.3639811" lon="-71.1406619"/>
   <trkpt lat="42.3639811" lon="-71.1406619"/>
   <trkpt lat="42.36400092" lon="-71.14082015"/>
   <trkpt lat="42.36400092" lon="-71.14082015"/>
   <trkpt lat="42.36401011" lon="-71.14087505"/>
   <trkpt lat="42.36401011" lon="-71.14087505"/>
   <trkpt lat="42.36400614" lon="-71.14096356"/>
   <trkpt lat="42.36400614" lon="-71.14096356"/>
   <trkpt lat="42.36395263" lon="-71.14111913"/>
   <trkpt lat="42.36395263" lon="-71.14111913"/>
   <trkpt lat="42.363913" lon="-71.14123178"/>
   <trkpt lat="42.363913" lon="-71.14123178"/>
   <trkpt lat="42.36386345" lon="-71.1413498"/>
   <trkpt lat="42.36386345" lon="-71.1413498"/>
   <trkpt lat="42.36381985" lon="-71.14143027"/>
   <trkpt lat="42.36381985" lon="-71.14143027"/>
   <trkpt lat="42.36378418" lon="-71.14150269"/>
   <trkpt lat="42.36378418" lon="-71.14150269"/>
   <trkpt lat="42.36376436" lon="-71.14157779"/>
   <trkpt lat="42.36376436" lon="-71.14157779"/>
   <trkpt lat="42.36378418" lon="-71.14176554"/>
   <trkpt lat="42.36378418" lon="-71.14176554"/>
   <trkpt lat="42.36385949" lon="-71.14189161"/>
   <trkpt lat="42.36385949" lon="-71.14189161"/>
   <trkpt lat="42.36396254" lon="-71.1419533"/>
   <trkpt lat="42.36396254" lon="-71.1419533"/>
   <trkpt lat="42.36407214" lon="-71.14199516"/>
   <trkpt lat="42.36407214" lon="-71.14199516"/>
   <trkpt lat="42.3642188" lon="-71.14211586"/>
   <trkpt lat="42.3642188" lon="-71.14211586"/>
   <trkpt lat="42.36431591" lon="-71.14218023"/>
   <trkpt lat="42.36431591" lon="-71.14218023"/>
   <trkpt lat="42.36442689" lon="-71.14229825"/>
   <trkpt lat="42.36442689" lon="-71.14229825"/>
   <trkpt lat="42.36447049" lon="-71.14243772"/>
   <trkpt lat="42.36447049" lon="-71.14243772"/>
   <trkpt lat="42.36444671" lon="-71.14256647"/>
   <trkpt lat="42.36444671" lon="-71.14256647"/>
   <trkpt lat="42.36437338" lon="-71.14275422"/>
   <trkpt lat="42.36437338" lon="-71.14275422"/>
   <trkpt lat="42.36426376" lon="-71.14291331"/>
   <trkpt lat="42.36426376" lon="-71.14291331"/>
   <trkpt lat="42.364129" lon="-71.14306352"/>
   <trkpt lat="42.364129" lon="-71.14306352"/>
   <trkpt lat="42.36401009" lon="-71.14315739"/>
   <trkpt lat="42.36401009" lon="-71.14315739"/>
   <trkpt lat="42.36386145" lon="-71.14327541"/>
   <trkpt lat="42.36386145" lon="-71.14327541"/>
   <trkpt lat="42.36371353" lon="-71.1434081"/>
   <trkpt lat="42.36371353" lon="-71.1434081"/>
   <trkpt lat="42.36357678" lon="-71.14355831"/>
   <trkpt lat="42.36357678" lon="-71.14355831"/>
   <trkpt lat="42.36347571" lon="-71.14367364"/>
   <trkpt lat="42.36347571" lon="-71.14367364"/>
   <trkpt lat="42.36338205" lon="-71.14378371"/>
   <trkpt lat="42.36338205" lon="-71.14378371"/>
   <trkpt lat="42.36329881" lon="-71.1439071"/>
   <trkpt lat="42.36329881" lon="-71.1439071"/>
   <trkpt lat="42.36325124" lon="-71.14401707"/>
   <trkpt lat="42.36325124" lon="-71.14401707"/>
   <trkpt lat="42.36321953" lon="-71.14424237"/>
   <trkpt lat="42.36321953" lon="-71.14424237"/>
   <trkpt lat="42.36317197" lon="-71.14449521"/>
   <trkpt lat="42.36317197" lon="-71.14449521"/>
   <trkpt lat="42.36313035" lon="-71.14474734"/>
   <trkpt lat="42.36313035" lon="-71.14474734"/>
   <trkpt lat="42.36311053" lon="-71.1448439"/>
   <trkpt lat="42.36311053" lon="-71.1448439"/>
   <trkpt lat="42.36301144" lon="-71.14489218"/>
   <trkpt lat="42.36301144" lon="-71.14489218"/>
   <trkpt lat="42.36287737" lon="-71.1448869"/>
   <trkpt lat="42.36287737" lon="-71.1448869"/>
   <trkpt lat="42.36283575" lon="-71.14500492"/>
   <trkpt lat="42.36283575" lon="-71.14500492"/>
   <trkpt lat="42.36265937" lon="-71.14529996"/>
   <trkpt lat="42.36265937" lon="-71.14529996"/>
   <trkpt lat="42.36249685" lon="-71.14554672"/>
   <trkpt lat="42.36249685" lon="-71.14554672"/>
   <trkpt lat="42.36233236" lon="-71.14578276"/>
   <trkpt lat="42.36233236" lon="-71.14578276"/>
   <trkpt lat="42.36221146" lon="-71.14594369"/>
   <trkpt lat="42.36221146" lon="-71.14594369"/>
   <trkpt lat="42.36205288" lon="-71.14618243"/>
   <trkpt lat="42.36205288" lon="-71.14618243"/>
   <trkpt lat="42.36192009" lon="-71.14637287"/>
   <trkpt lat="42.36192009" lon="-71.14637287"/>
   <trkpt lat="42.36181703" lon="-71.14650698"/>
   <trkpt lat="42.36181703" lon="-71.14650698"/>
   <trkpt lat="42.36177778" lon="-71.14662496"/>
   <trkpt lat="42.36177778" lon="-71.14662496"/>
   <trkpt lat="42.36178338" lon="-71.14676444"/>
   <trkpt lat="42.36178338" lon="-71.14676444"/>
   <trkpt lat="42.36181702" lon="-71.1469656"/>
   <trkpt lat="42.36181702" lon="-71.1469656"/>
   <trkpt lat="42.36184504" lon="-71.14717482"/>
   <trkpt lat="42.36184504" lon="-71.14717482"/>
   <trkpt lat="42.36187307" lon="-71.1474189"/>
   <trkpt lat="42.36187307" lon="-71.1474189"/>
   <trkpt lat="42.36187307" lon="-71.14772467"/>
   <trkpt lat="42.36187307" lon="-71.14772467"/>
   <trkpt lat="42.36188709" lon="-71.14789633"/>
   <trkpt lat="42.36188709" lon="-71.14789633"/>
   <trkpt lat="42.3619039" lon="-71.14805995"/>
   <trkpt lat="42.3619039" lon="-71.14805995"/>
   <trkpt lat="42.36191792" lon="-71.14815919"/>
   <trkpt lat="42.36191792" lon="-71.14815919"/>
   <trkpt lat="42.36195996" lon="-71.14824502"/>
   <trkpt lat="42.36195996" lon="-71.14824502"/>
   <trkpt lat="42.3620088" lon="-71.14830403"/>
   <trkpt lat="42.3620088" lon="-71.14830403"/>
   <trkpt lat="42.36209996" lon="-71.14835231"/>
   <trkpt lat="42.36209996" lon="-71.14835231"/>
   <trkpt lat="42.36225455" lon="-71.1483389"/>
   <trkpt lat="42.36225455" lon="-71.1483389"/>
   <trkpt lat="42.3623307" lon="-71.14829866"/>
   <trkpt lat="42.3623307" lon="-71.14829866"/>
   <trkpt lat="42.36263195" lon="-71.1479312"/>
   <trkpt lat="42.36263195" lon="-71.1479312"/>
   <trkpt lat="42.36294878" lon="-71.14759611"/>
   <trkpt lat="42.36294878" lon="-71.14759611"/>
   <trkpt lat="42.3630776" lon="-71.14747541"/>
   <trkpt lat="42.3630776" lon="-71.14747541"/>
   <trkpt lat="42.36331741" lon="-71.14723937"/>
   <trkpt lat="42.36331741" lon="-71.14723937"/>
   <trkpt lat="42.36354295" lon="-71.14701824"/>
   <trkpt lat="42.36354295" lon="-71.14701824"/>
   <trkpt lat="42.36372132" lon="-71.14683317"/>
   <trkpt lat="42.36372132" lon="-71.14683317"/>
   <trkpt lat="42.36388185" lon="-71.14666687"/>
   <trkpt lat="42.36388185" lon="-71.14666687"/>
   <trkpt lat="42.36405231" lon="-71.14648445"/>
   <trkpt lat="42.36405231" lon="-71.14648445"/>
   <trkpt lat="42.36419896" lon="-71.14632083"/>
   <trkpt lat="42.36419896" lon="-71.14632083"/>
   <trkpt lat="42.36433175" lon="-71.14617599"/>
   <trkpt lat="42.36433175" lon="-71.14617599"/>
   <trkpt lat="42.36451804" lon="-71.14594264"/>
   <trkpt lat="42.36451804" lon="-71.14594264"/>
   <trkpt lat="42.36471269" lon="-71.14567978"/>
   <trkpt lat="42.36471269" lon="-71.14567978"/>
   <trkpt lat="42.36483952" lon="-71.14551885"/>
   <trkpt lat="42.36483952" lon="-71.14551885"/>
   <trkpt lat="42.36496834" lon="-71.14530159"/>
   <trkpt lat="42.36496834" lon="-71.14530159"/>
   <trkpt lat="42.36506347" lon="-71.14515675"/>
   <trkpt lat="42.36506347" lon="-71.14515675"/>
   <trkpt lat="42.36514472" lon="-71.14501996"/>
   <trkpt lat="42.36514472" lon="-71.14501996"/>
   <trkpt lat="42.36522796" lon="-71.14484562"/>
   <trkpt lat="42.36522796" lon="-71.14484562"/>
   <trkpt lat="42.36531912" lon="-71.14462031"/>
   <trkpt lat="42.36531912" lon="-71.14462031"/>
   <trkpt lat="42.3654083" lon="-71.14434673"/>
   <trkpt lat="42.3654083" lon="-71.14434673"/>
   <trkpt lat="42.36544992" lon="-71.14415093"/>
   <trkpt lat="42.36544992" lon="-71.14415093"/>
   <trkpt lat="42.36549946" lon="-71.14389343"/>
   <trkpt lat="42.36549946" lon="-71.14389343"/>
   <trkpt lat="42.3655173" lon="-71.14366813"/>
   <trkpt lat="42.3655173" lon="-71.14366813"/>
   <trkpt lat="42.36550739" lon="-71.14339991"/>
   <trkpt lat="42.36550739" lon="-71.14339991"/>
   <trkpt lat="42.36547766" lon="-71.14307268"/>
   <trkpt lat="42.36547766" lon="-71.14307268"/>
   <trkpt lat="42.36541565" lon="-71.14272511"/>
   <trkpt lat="42.36541565" lon="-71.14272511"/>
   <trkpt lat="42.36531458" lon="-71.1422906"/>
   <trkpt lat="42.36531458" lon="-71.1422906"/>
   <trkpt lat="42.36523927" lon="-71.14197678"/>
   <trkpt lat="42.36523927" lon="-71.14197678"/>
   <trkpt lat="42.36512829" lon="-71.14148861"/>
   <trkpt lat="42.36512829" lon="-71.14148861"/>
   <trkpt lat="42.36502524" lon="-71.14093876"/>
   <trkpt lat="42.36502524" lon="-71.14093876"/>
   <trkpt lat="42.36500344" lon="-71.1408422"/>
   <trkpt lat="42.36500344" lon="-71.1408422"/>
   <trkpt lat="42.364942" lon="-71.1405418"/>
   <trkpt lat="42.364942" lon="-71.1405418"/>
   <trkpt lat="42.36491029" lon="-71.14035404"/>
   <trkpt lat="42.36491029" lon="-71.14035404"/>
   <trkpt lat="42.36493011" lon="-71.14018238"/>
   <trkpt lat="42.36493011" lon="-71.14018238"/>
   <trkpt lat="42.36495389" lon="-71.14001876"/>
   <trkpt lat="42.36495389" lon="-71.14001876"/>
   <trkpt lat="42.36498362" lon="-71.13993293"/>
   <trkpt lat="42.36498362" lon="-71.13993293"/>
   <trkpt lat="42.3650728" lon="-71.139772"/>
   <trkpt lat="42.3650728" lon="-71.139772"/>
   <trkpt lat="42.36518378" lon="-71.13962448"/>
   <trkpt lat="42.36518378" lon="-71.13962448"/>
   <trkpt lat="42.36525314" lon="-71.13948232"/>
   <trkpt lat="42.36525314" lon="-71.13948232"/>
   <trkpt lat="42.36534827" lon="-71.13929457"/>
   <trkpt lat="42.36534827" lon="-71.13929457"/>
   <trkpt lat="42.3654533" lon="-71.13911754"/>
   <trkpt lat="42.3654533" lon="-71.13911754"/>
   <trkpt lat="42.36556785" lon="-71.13898396"/>
   <trkpt lat="42.36556785" lon="-71.13898396"/>
   <trkpt lat="42.36567289" lon="-71.13889277"/>
   <trkpt lat="42.36567289" lon="-71.13889277"/>
   <trkpt lat="42.3658017" lon="-71.13875598"/>
   <trkpt lat="42.3658017" lon="-71.13875598"/>
   <trkpt lat="42.36593507" lon="-71.13855481"/>
   <trkpt lat="42.36593507" lon="-71.13855481"/>
   <trkpt lat="42.36605199" lon="-71.13838583"/>
   <trkpt lat="42.36605199" lon="-71.13838583"/>
   <trkpt lat="42.36620261" lon="-71.13822222"/>
   <trkpt lat="42.36620261" lon="-71.13822222"/>
   <trkpt lat="42.36635614" lon="-71.13804392"/>
   <trkpt lat="42.36635614" lon="-71.13804392"/>
   <trkpt lat="42.36645127" lon="-71.13796613"/>
   <trkpt lat="42.36645127" lon="-71.13796613"/>
   <trkpt lat="42.36662368" lon="-71.13776765"/>
   <trkpt lat="42.36662368" lon="-71.13776765"/>
   <trkpt lat="42.36682641" lon="-71.13750247"/>
   <trkpt lat="42.36682641" lon="-71.13750247"/>
   <trkpt lat="42.36696315" lon="-71.13731472"/>
   <trkpt lat="42.36696315" lon="-71.13731472"/>
   <trkpt lat="42.3670662" lon="-71.13718061"/>
   <trkpt lat="42.3670662" lon="-71.13718061"/>
   <trkpt lat="42.36720888" lon="-71.13698212"/>
   <trkpt lat="42.36720888" lon="-71.13698212"/>
   <trkpt lat="42.3673619" lon="-71.13673747"/>
   <trkpt lat="42.3673619" lon="-71.13673747"/>
   <trkpt lat="42.36748675" lon="-71.13652825"/>
   <trkpt lat="42.36748675" lon="-71.13652825"/>
   <trkpt lat="42.36761556" lon="-71.1362654"/>
   <trkpt lat="42.36761556" lon="-71.1362654"/>
   <trkpt lat="42.36777806" lon="-71.13594085"/>
   <trkpt lat="42.36777806" lon="-71.13594085"/>
   <trkpt lat="42.36788111" lon="-71.13571554"/>
   <trkpt lat="42.36788111" lon="-71.13571554"/>
   <trkpt lat="42.3679901" lon="-71.13557607"/>
   <trkpt lat="42.3679901" lon="-71.13557607"/>
   <trkpt lat="42.36812684" lon="-71.13539368"/>
   <trkpt lat="42.36812684" lon="-71.13539368"/>
   <trkpt lat="42.36827745" lon="-71.13521129"/>
   <trkpt lat="42.36827745" lon="-71.13521129"/>
   <trkpt lat="42.36841022" lon="-71.13507986"/>
   <trkpt lat="42.36841022" lon="-71.13507986"/>
   <trkpt lat="42.36855687" lon="-71.13494039"/>
   <trkpt lat="42.36855687" lon="-71.13494039"/>
   <trkpt lat="42.36869955" lon="-71.13481969"/>
   <trkpt lat="42.36869955" lon="-71.13481969"/>
   <trkpt lat="42.36889269" lon="-71.13467217"/>
   <trkpt lat="42.36889269" lon="-71.13467217"/>
   <trkpt lat="42.36904329" lon="-71.13458097"/>
   <trkpt lat="42.36904329" lon="-71.13458097"/>
   <trkpt lat="42.36927317" lon="-71.13445222"/>
   <trkpt lat="42.36927317" lon="-71.13445222"/>
   <trkpt lat="42.36940442" lon="-71.13440394"/>
   <trkpt lat="42.36940442" lon="-71.13440394"/>
   <trkpt lat="42.36956097" lon="-71.1343798"/>
   <trkpt lat="42.36956097" lon="-71.1343798"/>
   <trkpt lat="42.36971158" lon="-71.13434762"/>
   <trkpt lat="42.36971158" lon="-71.13434762"/>
   <trkpt lat="42.36986615" lon="-71.13431275"/>
   <trkpt lat="42.36986615" lon="-71.13431275"/>
   <trkpt lat="42.37001776" lon="-71.13426262"/>
   <trkpt lat="42.37001776" lon="-71.13426262"/>
   <trkpt lat="42.37016044" lon="-71.13418751"/>
   <trkpt lat="42.37016044" lon="-71.13418751"/>
   <trkpt lat="42.37025952" lon="-71.13409364"/>
   <trkpt lat="42.37025952" lon="-71.13409364"/>
   <trkpt lat="42.37034671" lon="-71.13397562"/>
   <trkpt lat="42.37034671" lon="-71.13397562"/>
   <trkpt lat="42.37043391" lon="-71.13380128"/>
   <trkpt lat="42.37043391" lon="-71.13380128"/>
   <trkpt lat="42.37054673" lon="-71.13348884"/>
   <trkpt lat="42.37054673" lon="-71.13348884"/>
   <trkpt lat="42.37064581" lon="-71.13323403"/>
   <trkpt lat="42.37064581" lon="-71.13323403"/>
   <trkpt lat="42.37070328" lon="-71.13307041"/>
   <trkpt lat="42.37070328" lon="-71.13307041"/>
   <trkpt lat="42.37076075" lon="-71.13299531"/>
   <trkpt lat="42.37076075" lon="-71.13299531"/>
   <trkpt lat="42.3708301" lon="-71.1329819"/>
   <trkpt lat="42.3708301" lon="-71.1329819"/>
   <trkpt lat="42.37092522" lon="-71.13303018"/>
   <trkpt lat="42.37092522" lon="-71.13303018"/>
   <trkpt lat="42.37104756" lon="-71.13312553"/>
   <trkpt lat="42.37104756" lon="-71.13312553"/>
   <trkpt lat="42.37122194" lon="-71.133265"/>
   <trkpt lat="42.37122194" lon="-71.133265"/>
   <trkpt lat="42.37139236" lon="-71.13339643"/>
   <trkpt lat="42.37139236" lon="-71.13339643"/>
   <trkpt lat="42.37156567" lon="-71.13353859"/>
   <trkpt lat="42.37156567" lon="-71.13353859"/>
   <trkpt lat="42.37161323" lon="-71.13358418"/>
   <trkpt lat="42.37161323" lon="-71.13358418"/>
   <trkpt lat="42.37164295" lon="-71.13363515"/>
   <trkpt lat="42.37164295" lon="-71.13363515"/>
   <trkpt lat="42.37164691" lon="-71.1337183"/>
   <trkpt lat="42.37164691" lon="-71.1337183"/>
   <trkpt lat="42.37164097" lon="-71.13381754"/>
   <trkpt lat="42.37164097" lon="-71.13381754"/>
   <trkpt lat="42.371637" lon="-71.13393287"/>
   <trkpt lat="42.371637" lon="-71.13393287"/>
   <trkpt lat="42.37164295" lon="-71.13399993"/>
   <trkpt lat="42.37164295" lon="-71.13399993"/>
   <trkpt lat="42.37164691" lon="-71.13404016"/>
   <trkpt lat="42.37164691" lon="-71.13404016"/>
   <trkpt lat="42.37163304" lon="-71.1340938"/>
   <trkpt lat="42.37163304" lon="-71.1340938"/>
   <trkpt lat="42.3715518" lon="-71.13421719"/>
   <trkpt lat="42.3715518" lon="-71.13421719"/>
   <trkpt lat="42.37157756" lon="-71.13428961"/>
   <trkpt lat="42.37157756" lon="-71.13428961"/>
   <trkpt lat="42.37164493" lon="-71.13435934"/>
   <trkpt lat="42.37164493" lon="-71.13435934"/>
   <trkpt lat="42.37172221" lon="-71.13440226"/>
   <trkpt lat="42.37172221" lon="-71.13440226"/>
   <trkpt lat="42.37189867" lon="-71.1344559"/>
   <trkpt lat="42.37189867" lon="-71.1344559"/>
   <trkpt lat="42.3720928" lon="-71.13438885"/>
   <trkpt lat="42.3720928" lon="-71.13438885"/>
   <trkpt lat="42.37234502" lon="-71.13430838"/>
   <trkpt lat="42.37234502" lon="-71.13430838"/>
   <trkpt lat="42.37281872" lon="-71.13389934"/>
   <trkpt lat="42.37281872" lon="-71.13389934"/>
   <trkpt lat="42.37327157" lon="-71.13343263"/>
   <trkpt lat="42.37327157" lon="-71.13343263"/>
   <trkpt lat="42.37359258" lon="-71.13308126"/>
   <trkpt lat="42.37359258" lon="-71.13308126"/>
   <trkpt lat="42.37408994" lon="-71.13236511"/>
   <trkpt lat="42.37408994" lon="-71.13236511"/>
   <trkpt lat="42.3742326" lon="-71.1320352"/>
   <trkpt lat="42.3742326" lon="-71.1320352"/>
   <trkpt lat="42.37437131" lon="-71.13152068"/>
   <trkpt lat="42.37437131" lon="-71.13152068"/>
   <trkpt lat="42.3744684" lon="-71.13096278"/>
   <trkpt lat="42.3744684" lon="-71.13096278"/>
   <trkpt lat="42.374512" lon="-71.13049071"/>
   <trkpt lat="42.374512" lon="-71.13049071"/>
   <trkpt lat="42.37451001" lon="-71.13015007"/>
   <trkpt lat="42.37451001" lon="-71.13015007"/>
   <trkpt lat="42.37444859" lon="-71.12936686"/>
   <trkpt lat="42.37444859" lon="-71.12936686"/>
   <trkpt lat="42.37433366" lon="-71.12877946"/>
   <trkpt lat="42.37433366" lon="-71.12877946"/>
   <trkpt lat="42.37414344" lon="-71.12817596"/>
   <trkpt lat="42.37414344" lon="-71.12817596"/>
   <trkpt lat="42.37395916" lon="-71.12774681"/>
   <trkpt lat="42.37395916" lon="-71.12774681"/>
   <trkpt lat="42.37369958" lon="-71.12726133"/>
   <trkpt lat="42.37369958" lon="-71.12726133"/>
   <trkpt lat="42.37326638" lon="-71.12653649"/>
   <trkpt lat="42.37326638" lon="-71.12653649"/>
   <trkpt lat="42.37299689" lon="-71.12615293"/>
   <trkpt lat="42.37299689" lon="-71.12615293"/>
   <trkpt lat="42.37244998" lon="-71.12543946"/>
   <trkpt lat="42.37244998" lon="-71.12543946"/>
   <trkpt lat="42.37212698" lon="-71.12508541"/>
   <trkpt lat="42.37212698" lon="-71.12508541"/>
   <trkpt lat="42.37192486" lon="-71.12487888"/>
   <trkpt lat="42.37192486" lon="-71.12487888"/>
   <trkpt lat="42.37152062" lon="-71.12454897"/>
   <trkpt lat="42.37152062" lon="-71.12454897"/>
   <trkpt lat="42.37129274" lon="-71.12437999"/>
   <trkpt lat="42.37129274" lon="-71.12437999"/>
   <trkpt lat="42.37094397" lon="-71.12412687"/>
   <trkpt lat="42.37094397" lon="-71.12412687"/>
   <trkpt lat="42.37062097" lon="-71.12384524"/>
   <trkpt lat="42.37062097" lon="-71.12384524"/>
   <trkpt lat="42.37047433" lon="-71.12367626"/>
   <trkpt lat="42.37047433" lon="-71.12367626"/>
   <trkpt lat="42.3701434" lon="-71.12322565"/>
   <trkpt lat="42.3701434" lon="-71.12322565"/>
   <trkpt lat="42.36995712" lon="-71.12289842"/>
   <trkpt lat="42.36995712" lon="-71.12289842"/>
   <trkpt lat="42.36982435" lon="-71.12252291"/>
   <trkpt lat="42.36982435" lon="-71.12252291"/>
   <trkpt lat="42.36971735" lon="-71.12202938"/>
   <trkpt lat="42.36971735" lon="-71.12202938"/>
   <trkpt lat="42.36970347" lon="-71.12176653"/>
   <trkpt lat="42.36970347" lon="-71.12176653"/>
   <trkpt lat="42.3697332" lon="-71.12115498"/>
   <trkpt lat="42.3697332" lon="-71.12115498"/>
   <trkpt lat="42.36982237" lon="-71.12007405"/>
   <trkpt lat="42.36982237" lon="-71.12007405"/>
   <trkpt lat="42.36982237" lon="-71.11954029"/>
   <trkpt lat="42.36982237" lon="-71.11954029"/>
   <trkpt lat="42.369755" lon="-71.11886706"/>
   <trkpt lat="42.369755" lon="-71.11886706"/>
   <trkpt lat="42.36959646" lon="-71.11814286"/>
   <trkpt lat="42.36959646" lon="-71.11814286"/>
   <trkpt lat="42.36937379" lon="-71.11760782"/>
   <trkpt lat="42.36937379" lon="-71.11760782"/>
   <trkpt lat="42.36909636" lon="-71.11717598"/>
   <trkpt lat="42.36909636" lon="-71.11717598"/>
   <trkpt lat="42.36833143" lon="-71.1166154"/>
   <trkpt lat="42.36833143" lon="-71.1166154"/>
   <trkpt lat="42.367511" lon="-71.11622648"/>
   <trkpt lat="42.367511" lon="-71.11622648"/>
   <trkpt lat="42.36665958" lon="-71.11596728"/>
   <trkpt lat="42.36665958" lon="-71.11596728"/>
   <trkpt lat="42.36592633" lon="-71.11590291"/>
   <trkpt lat="42.36592633" lon="-71.11590291"/>
   <trkpt lat="42.36538927" lon="-71.11595119"/>
   <trkpt lat="42.36538927" lon="-71.11595119"/>
   <trkpt lat="42.36489387" lon="-71.11599142"/>
   <trkpt lat="42.36489387" lon="-71.11599142"/>
   <trkpt lat="42.36460255" lon="-71.1160102"/>
   <trkpt lat="42.36460255" lon="-71.1160102"/>
   <trkpt lat="42.36380847" lon="-71.11605312"/>
   <trkpt lat="42.36380847" lon="-71.11605312"/>
   <trkpt lat="42.36300585" lon="-71.11604239"/>
   <trkpt lat="42.36300585" lon="-71.11604239"/>
   <trkpt lat="42.36238652" lon="-71.11602898"/>
   <trkpt lat="42.36238652" lon="-71.11602898"/>
   <trkpt lat="42.36164529" lon="-71.1159646"/>
   <trkpt lat="42.36164529" lon="-71.1159646"/>
   <trkpt lat="42.36080496" lon="-71.11585463"/>
   <trkpt lat="42.36080496" lon="-71.11585463"/>
   <trkpt lat="42.35984966" lon="-71.1157688"/>
   <trkpt lat="42.35984966" lon="-71.1157688"/>
   <trkpt lat="42.35905489" lon="-71.11566688"/>
   <trkpt lat="42.35905489" lon="-71.11566688"/>
   <trkpt lat="42.3582551" lon="-71.11549578"/>
   <trkpt lat="42.3582551" lon="-71.11549578"/>
   <trkpt lat="42.35757069" lon="-71.1152853"/>
   <trkpt lat="42.35757069" lon="-71.1152853"/>
   <trkpt lat="42.3570217" lon="-71.11496076"/>
   <trkpt lat="42.3570217" lon="-71.11496076"/>
   <trkpt lat="42.35672638" lon="-71.11474618"/>
   <trkpt lat="42.35672638" lon="-71.11474618"/>
   <trkpt lat="42.35643898" lon="-71.11443773"/>
   <trkpt lat="42.35643898" lon="-71.11443773"/>
   <trkpt lat="42.35591571" lon="-71.11375376"/>
   <trkpt lat="42.35591571" lon="-71.11375376"/>
   <trkpt lat="42.3555074" lon="-71.11307785"/>
   <trkpt lat="42.3555074" lon="-71.11307785"/>
   <trkpt lat="42.35508476" lon="-71.11236563"/>
   <trkpt lat="42.35508476" lon="-71.11236563"/>
   <trkpt lat="42.35464414" lon="-71.11156937"/>
   <trkpt lat="42.35464414" lon="-71.11156937"/>
   <trkpt lat="42.35421299" lon="-71.11081295"/>
   <trkpt lat="42.35421299" lon="-71.11081295"/>
   <trkpt lat="42.35392381" lon="-71.11028824"/>
   <trkpt lat="42.35392381" lon="-71.11028824"/>
   <trkpt lat="42.35373352" lon="-71.10977594"/>
   <trkpt lat="42.35373352" lon="-71.10977594"/>
   <trkpt lat="42.3536027" lon="-71.10927704"/>
   <trkpt lat="42.3536027" lon="-71.10927704"/>
   <trkpt lat="42.35347188" lon="-71.10842947"/>
   <trkpt lat="42.35347188" lon="-71.10842947"/>
   <trkpt lat="42.35342827" lon="-71.10779647"/>
   <trkpt lat="42.35342827" lon="-71.10779647"/>
   <trkpt lat="42.353458" lon="-71.10621396"/>
   <trkpt lat="42.353458" lon="-71.10621396"/>
   <trkpt lat="42.35352539" lon="-71.10501233"/>
   <trkpt lat="42.35352539" lon="-71.10501233"/>
   <trkpt lat="42.35357693" lon="-71.1044142"/>
   <trkpt lat="42.35357693" lon="-71.1044142"/>
   <trkpt lat="42.35383659" lon="-71.10323403"/>
   <trkpt lat="42.35383659" lon="-71.10323403"/>
   <trkpt lat="42.35403084" lon="-71.10266808"/>
   <trkpt lat="42.35403084" lon="-71.10266808"/>
   <trkpt lat="42.35442584" lon="-71.1015052"/>
   <trkpt lat="42.35442584" lon="-71.1015052"/>
   <trkpt lat="42.35481724" lon="-71.10028236"/>
   <trkpt lat="42.35481724" lon="-71.10028236"/>
   <trkpt lat="42.35497185" lon="-71.09986125"/>
   <trkpt lat="42.35497185" lon="-71.09986125"/>
   <trkpt lat="42.35515495" lon="-71.09932481"/>
   <trkpt lat="42.35515495" lon="-71.09932481"/>
   <trkpt lat="42.35534523" lon="-71.09873473"/>
   <trkpt lat="42.35534523" lon="-71.09873473"/>
   <trkpt lat="42.3556802" lon="-71.09772232"/>
   <trkpt lat="42.3556802" lon="-71.09772232"/>
   <trkpt lat="42.35592003" lon="-71.09703567"/>
   <trkpt lat="42.35592003" lon="-71.09703567"/>
   <trkpt lat="42.35620744" lon="-71.09613445"/>
   <trkpt lat="42.35620744" lon="-71.09613445"/>
   <trkpt lat="42.35634816" lon="-71.09571335"/>
   <trkpt lat="42.35634816" lon="-71.09571335"/>
   <trkpt lat="42.35666852" lon="-71.0947283"/>
   <trkpt lat="42.35666852" lon="-71.0947283"/>
   <trkpt lat="42.35675771" lon="-71.09425623"/>
   <trkpt lat="42.35675771" lon="-71.09425623"/>
   <trkpt lat="42.3568251" lon="-71.09384317"/>
   <trkpt lat="42.3568251" lon="-71.09384317"/>
   <trkpt lat="42.35697573" lon="-71.09338719"/>
   <trkpt lat="42.35697573" lon="-71.09338719"/>
   <trkpt lat="42.35717394" lon="-71.09284271"/>
   <trkpt lat="42.35717394" lon="-71.09284271"/>
   <trkpt lat="42.35748169" lon="-71.09191394"/>
   <trkpt lat="42.35748169" lon="-71.09191394"/>
   <trkpt lat="42.35769575" lon="-71.09130239"/>
   <trkpt lat="42.35769575" lon="-71.09130239"/>
   <trkpt lat="42.35793954" lon="-71.09083086"/>
   <trkpt lat="42.35793954" lon="-71.09083086"/>
   <trkpt lat="42.3581199" lon="-71.09043121"/>
   <trkpt lat="42.3581199" lon="-71.09043121"/>
   <trkpt lat="42.35845684" lon="-71.08943343"/>
   <trkpt lat="42.35845684" lon="-71.08943343"/>
   <trkpt lat="42.35880774" lon="-71.08835743"/>
   <trkpt lat="42.35880774" lon="-71.08835743"/>
   <trkpt lat="42.3591863" lon="-71.08723314"/>
   <trkpt lat="42.3591863" lon="-71.08723314"/>
   <trkpt lat="42.35964611" lon="-71.08587595"/>
   <trkpt lat="42.35964611" lon="-71.08587595"/>
   <trkpt lat="42.35996719" lon="-71.08492108"/>
   <trkpt lat="42.35996719" lon="-71.08492108"/>
   <trkpt lat="42.36036655" lon="-71.08374426"/>
   <trkpt lat="42.36036655" lon="-71.08374426"/>
   <trkpt lat="42.36071339" lon="-71.08265528"/>
   <trkpt lat="42.36071339" lon="-71.08265528"/>
   <trkpt lat="42.36078276" lon="-71.08243266"/>
   <trkpt lat="42.36078276" lon="-71.08243266"/>
   <trkpt lat="42.3608342" lon="-71.0821371"/>
   <trkpt lat="42.3608342" lon="-71.0821371"/>
   <trkpt lat="42.36085401" lon="-71.08165967"/>
   <trkpt lat="42.36085401" lon="-71.08165967"/>
   <trkpt lat="42.36082825" lon="-71.08017641"/>
   <trkpt lat="42.36082825" lon="-71.08017641"/>
   <trkpt lat="42.36084807" lon="-71.07987332"/>
   <trkpt lat="42.36084807" lon="-71.07987332"/>
   <trkpt lat="42.36093527" lon="-71.07953525"/>
   <trkpt lat="42.36093527" lon="-71.07953525"/>
   <trkpt lat="42.36109383" lon="-71.07924557"/>
   <trkpt lat="42.36109383" lon="-71.07924557"/>
   <trkpt lat="42.36128211" lon="-71.07906586"/>
   <trkpt lat="42.36128211" lon="-71.07906586"/>
   <trkpt lat="42.36174121" lon="-71.07890971"/>
   <trkpt lat="42.36174121" lon="-71.07890971"/>
   <trkpt lat="42.3622252" lon="-71.07884699"/>
   <trkpt lat="42.3622252" lon="-71.07884699"/>
   <trkpt lat="42.36269254" lon="-71.07875894"/>
   <trkpt lat="42.36269254" lon="-71.07875894"/>
   <trkpt lat="42.36298585" lon="-71.07868652"/>
   <trkpt lat="42.36298585" lon="-71.07868652"/>
   <trkpt lat="42.36335788" lon="-71.07858957"/>
   <trkpt lat="42.36335788" lon="-71.07858957"/>
   <trkpt lat="42.36364921" lon="-71.07856007"/>
   <trkpt lat="42.36364921" lon="-71.07856007"/>
   <trkpt lat="42.36381965" lon="-71.07853325"/>
   <trkpt lat="42.36381965" lon="-71.07853325"/>
   <trkpt lat="42.36407729" lon="-71.07846887"/>
   <trkpt lat="42.36407729" lon="-71.07846887"/>
   <trkpt lat="42.36470281" lon="-71.07826771"/>
   <trkpt lat="42.36470281" lon="-71.07826771"/>
   <trkpt lat="42.36541824" lon="-71.07809336"/>
   <trkpt lat="42.36541824" lon="-71.07809336"/>
   <trkpt lat="42.36629049" lon="-71.07789899"/>
   <trkpt lat="42.36629049" lon="-71.07789899"/>
   <trkpt lat="42.36723836" lon="-71.07768504"/>
   <trkpt lat="42.36723836" lon="-71.07768504"/>
   <trkpt lat="42.36754082" lon="-71.07764045"/>
   <trkpt lat="42.36754082" lon="-71.07764045"/>
   <trkpt lat="42.36776716" lon="-71.07758025"/>
  </trkseg>
 </trk>
</gpx>
